NORAD_CAT_ID,OBJECT_NAME,OBJECT_TYPE,EPOCH,MEAN_MOTION,ECCENTRICITY,INCLINATION,RA_OF_ASC_NODE,ARG_OF_PERICENTER,MEAN_ANOMALY,BSTAR,MEAN_MOTION_DOT,MEAN_MOTION_DDOT,TLE_LINE0,TLE_LINE1,TLE_LINE2,SEMIMAJOR_AXIS,PERIOD,APOGEE,PERIGEE,DECAYED
55302.0,STARLINK-5321,PAYLOAD,2023-03-22 20:59:18,15.69939167,0.0003765,69.9999,253.6279,269.7645,90.3119,4.1747e-05,4.813e-05,0.0,0 STARLINK-5321,1 55302U 23010AK  23081.87451593  .00004813  00000-0  41747-4 0  9990,2 55302  69.9999 253.6279 0003765 269.7645  90.3119 15.69939167 10608,6737.208,91.723,361.61,356.536,0.0
55302.0,STARLINK-5321,PAYLOAD,2023-03-23 04:38:05,15.69910443,0.0002619,70.0021,252.7333,271.8456,88.244,-2.2424e-05,-2.906e-05,0.0,0 STARLINK-5321,1 55302U 23010AK  23082.19311388 -.00002906  00000-0 -22424-4 0  9997,2 55302  70.0021 252.7333 0002619 271.8456  88.2440 15.69910443 10349,6737.29,91.725,360.92,357.391,0.0
55302.0,STARLINK-5321,PAYLOAD,2023-03-23 12:16:49,15.69931475,0.000306,70.001,251.8376,272.2165,87.8681,3.2246e-05,3.667e-05,0.0,0 STARLINK-5321,1 55302U 23010AK  23082.51168901  .00003667  00000-0  32246-4 0  9990,2 55302  70.0010 251.8376 0003060 272.2165  87.8681 15.69931475 10392,6737.23,91.724,361.157,357.033,0.0
55302.0,STARLINK-5321,PAYLOAD,2023-03-23 13:48:34,15.69932287,0.0003376,70.0025,251.6589,270.8098,89.2711,3.9841e-05,4.582e-05,0.0,0 STARLINK-5321,1 55302U 23010AK  23082.57540497  .00004582  00000-0  39841-4 0  9995,2 55302  70.0025 251.6589 0003376 270.8098  89.2711 15.69932287 10719,6737.228,91.724,361.367,356.818,0.0
55302.0,STARLINK-5321,PAYLOAD,2023-03-23 21:27:20,15.69949932,0.0003594,70.0012,250.7623,267.4826,92.5958,9.5397e-05,0.00011286,0.0,0 STARLINK-5321,1 55302U 23010AK  23082.89398175  .00011286  00000-0  95397-4 0  9991,2 55302  70.0012 250.7623 0003594 267.4826  92.5958 15.69949932 10767,6737.177,91.723,361.464,356.621,0.0
55302.0,STARLINK-5321,PAYLOAD,2023-03-24 12:44:51,15.69947654,0.0003504,70.0024,248.9712,268.4679,91.6115,7.3091e-05,8.594e-05,0.0,0 STARLINK-5321,1 55302U 23010AK  23083.53114590  .00008594  00000-0  73091-4 0  9995,2 55302  70.0024 248.9712 0003504 268.4679  91.6115 15.69947654 10557,6737.184,91.723,361.409,356.688,0.0
55302.0,STARLINK-5321,PAYLOAD,2023-03-24 14:16:36,15.69941125,0.0004598,70.0021,248.7922,277.3555,82.7118,5.7098e-05,6.664e-05,0.0,0 STARLINK-5321,1 55302U 23010AK  23083.59486305  .00006664  00000-0  57098-4 0  9992,2 55302  70.0021 248.7922 0004598 277.3555  82.7118 15.69941125 10877,6737.202,91.723,362.165,355.97,0.0
55302.0,STARLINK-5321,PAYLOAD,2023-03-24 20:23:38,15.69867083,0.0003052,70.0019,248.0759,269.3373,90.7473,-0.00022092,-0.00026628,0.0,0 STARLINK-5321,1 55302U 23010AK  23083.84975083 -.00026628  00000-0 -22092-3 0  9995,2 55302  70.0019 248.0759 0003052 269.3373  90.7473 15.69867083 10602,6737.414,91.728,361.336,357.223,0.0
55302.0,STARLINK-5321,PAYLOAD,2023-03-25 11:41:10,15.69908901,0.0003269,70.0035,246.2851,272.6288,87.4533,4.6791e-05,5.414e-05,0.0,0 STARLINK-5321,1 55302U 23010AK  23084.48692452  .00005414  00000-0  46791-4 0  9993,2 55302  70.0035 246.2851 0003269 272.6288  87.4533 15.69908901 10701,6737.295,91.725,361.362,356.957,0.0
55302.0,STARLINK-5321,PAYLOAD,2023-03-25 20:51:40,15.69944212,0.0002505,70.0017,245.2088,256.7734,103.3182,0.00017505,0.00020903,0.0,0 STARLINK-5321,1 55302U 23010AK  23084.86921614  .00020903  00000-0  17505-3 0  9990,2 55302  70.0017 245.2088 0002505 256.7734 103.3182 15.69944212 10762,6737.194,91.723,360.746,357.371,0.0
55302.0,STARLINK-5321,PAYLOAD,2023-03-26 12:09:11,15.6993265,0.0003647,70.0018,243.4181,266.5904,93.4874,5.8244e-05,6.799e-05,0.0,0 STARLINK-5321,1 55302U 23010AK  23085.50638037  .00006799  00000-0  58244-4 0  9999,2 55302  70.0018 243.4181 0003647 266.5904  93.4874 15.69932650 10864,6737.227,91.724,361.549,356.635,0.0
55302.0,STARLINK-5321,PAYLOAD,2023-03-26 19:47:56,15.69942895,0.0003668,70.0008,242.5216,268.9699,91.1076,4.0746e-05,4.693e-05,0.0,0 STARLINK-5321,1 55302U 23010AK  23085.82495824  .00004693  00000-0  40746-4 0  9998,2 55302  70.0008 242.5216 0003668 268.9699  91.1076 15.69942895 11224,6737.197,91.723,361.534,356.591,0.0
55302.0,STARLINK-5321,PAYLOAD,2023-03-27 12:37:12,15.69926885,0.0003713,70.0006,240.5509,267.5907,92.4864,-5.2844e-06,-8.48e-06,0.0,0 STARLINK-5321,1 55302U 23010AK  23086.52584224 -.00000848  00000-0 -52844-5 0  9992,2 55302  70.0006 240.5509 0003713 267.5907  92.4864 15.69926885 11021,6737.243,91.724,361.61,356.607,0.0
55302.0,STARLINK-5321,PAYLOAD,2023-03-27 20:15:58,15.69929985,0.000361,70.0001,239.655,269.9926,90.0856,4.7284e-05,5.478e-05,0.0,0 STARLINK-5321,1 55302U 23010AK  23086.84442553  .00005478  00000-0  47284-4 0  9998,2 55302  70.0001 239.6550 0003610 269.9926  90.0856 15.69929985 11382,6737.234,91.724,361.531,356.667,0.0
55302.0,STARLINK-5321,PAYLOAD,2023-03-28 13:05:14,15.69933741,0.0003399,70.0012,237.6863,274.5524,85.5283,5.0563e-05,5.874e-05,0.0,0 STARLINK-5321,1 55302U 23010AK  23087.54530950  .00005874  00000-0  50563-4 0  9999,2 55302  70.0012 237.6863 0003399 274.5524  85.5283 15.69933741 11185,6737.224,91.724,361.379,356.799,0.0
55302.0,STARLINK-5321,PAYLOAD,2023-03-28 19:12:14,15.69936041,0.0004035,69.9994,236.9683,271.5768,88.4966,4.3354e-05,5.006e-05,0.0,0 STARLINK-5321,1 55302U 23010AK  23087.80017264  .00005006  00000-0  43354-4 0  9993,2 55302  69.9994 236.9683 0004035 271.5768  88.4966 15.69936041 11533,6737.217,91.723,361.8,356.364,0.0
55302.0,STARLINK-5321,PAYLOAD,2023-03-29 12:01:30,15.69944261,0.0003604,70.0036,235.0006,257.9846,102.0946,4.5062e-05,5.214e-05,0.0,0 STARLINK-5321,1 55302U 23010AK  23088.50104877  .00005214  00000-0  45062-4 0  9997,2 55302  70.0036 235.0006 0003604 257.9846 102.0946 15.69944261 11644,6737.193,91.723,361.487,356.63,0.0
55302.0,STARLINK-5321,PAYLOAD,2023-03-29 18:08:31,15.69911226,0.0003608,70.0011,234.2814,264.1542,95.9243,-5.0763e-05,-6.309e-05,0.0,0 STARLINK-5321,1 55302U 23010AK  23088.75592470 -.00006309  00000-0 -50763-4 0  9996,2 55302  70.0011 234.2814 0003608 264.1542  95.9243 15.69911226 11377,6737.288,91.725,361.584,356.722,0.0
55302.0,STARLINK-5321,PAYLOAD,2023-03-29 21:12:02,15.69907344,0.0003547,70.0001,233.9229,269.1172,90.9617,-4.1093e-05,-5.148e-05,0.0,0 STARLINK-5321,1 55302U 23010AK  23088.88336503 -.00005148  00000-0 -41093-4 0  9999,2 55302  70.0001 233.9229 0003547 269.1172  90.9617 15.69907344 11701,6737.299,91.725,361.554,356.774,0.0
55302.0,STARLINK-5321,PAYLOAD,2023-03-30 10:57:48,15.69926826,0.000329,70.0019,232.313,261.9342,98.148,1.061e-05,1.063e-05,0.0,0 STARLINK-5321,1 55302U 23010AK  23089.45681039  .00001063  00000-0  10610-4 0  9991,2 55302  70.0019 232.3130 0003290 261.9342  98.1480 15.69926826 11487,6737.243,91.724,361.325,356.892,0.0
55302.0,STARLINK-5321,PAYLOAD,2023-03-30 18:36:34,15.69925835,0.0003432,70.001,231.4171,265.0334,95.047,3.081e-05,3.494e-05,0.0,0 STARLINK-5321,1 55302U 23010AK  23089.77539526  .00003494  00000-0  30810-4 0  9993,2 55302  70.0010 231.4171 0003432 265.0334  95.0470 15.69925835 11841,6737.246,91.724,361.423,356.799,0.0
55302.0,STARLINK-5321,PAYLOAD,2023-03-31 11:25:50,15.69915382,0.0003785,70.0003,229.4443,274.5403,85.536,1.4115e-05,1.484e-05,0.0,0 STARLINK-5321,1 55302U 23010AK  23090.47628469  .00001484  00000-0  14115-4 0  9994,2 55302  70.0003 229.4443 0003785 274.5403  85.5360 15.69915382 11641,6737.276,91.725,361.691,356.591,0.0
55302.0,STARLINK-5321,PAYLOAD,2023-03-31 19:04:36,15.69923158,0.0003382,70.0009,228.549,273.5557,86.5252,3.5589e-05,4.068e-05,0.0,0 STARLINK-5321,1 55302U 23010AK  23090.79486767  .00004068  00000-0  35589-4 0  9991,2 55302  70.0009 228.5490 0003382 273.5557  86.5252 15.69923158 11697,6737.254,91.724,361.397,356.84,0.0
55302.0,STARLINK-5321,PAYLOAD,2023-04-01 11:53:53,15.69918487,0.000312,70.0013,226.5796,257.8827,102.2019,-4.2542e-07,-2.64e-06,0.0,0 STARLINK-5321,1 55302U 23010AK  23091.49575373 -.00000264  00000-0 -42542-6 0  9996,2 55302  70.0013 226.5796 0003120 257.8827 102.2019 15.69918487 12118,6737.267,91.725,361.234,357.03,0.0
55302.0,STARLINK-5321,PAYLOAD,2023-04-01 18:00:54,15.69906629,0.0003537,70.0006,225.8637,266.9095,93.1696,-2.2718e-05,-2.942e-05,0.0,0 STARLINK-5321,1 55302U 23010AK  23091.75062764 -.00002942  00000-0 -22718-4 0  9996,2 55302  70.0006 225.8637 0003537 266.9095  93.1696 15.69906629 11849,6737.301,91.725,361.549,356.783,0.0
55302.0,STARLINK-5321,PAYLOAD,2023-04-02 12:21:54,15.69931631,0.0003164,70.0007,223.7123,267.8946,92.1887,3.8456e-05,4.415e-05,0.0,0 STARLINK-5321,1 55302U 23010AK  23092.51521764  .00004415  00000-0  38456-4 0  9992,2 55302  70.0007 223.7123 0003164 267.8946  92.1887 15.69931631 11963,6737.23,91.724,361.226,356.963,0.0
55302.0,STARLINK-5321,PAYLOAD,2023-04-02 18:28:56,15.69892746,0.0003283,70.0004,222.9947,276.0333,84.0489,-4.3783e-05,-5.467e-05,0.0,0 STARLINK-5321,1 55302U 23010AK  23092.77010055 -.00005467  00000-0 -43783-4 0  9995,2 55302  70.0004 222.9947 0003283 276.0333  84.0489 15.69892746 12006,6737.341,91.726,361.418,356.994,0.0
55302.0,STARLINK-5321,PAYLOAD,2023-04-03 02:07:41,15.6990749,0.0003845,70.0002,222.1006,274.853,85.2227,-8.4617e-06,-1.23e-05,0.0,0 STARLINK-5321,1 55302U 23010AK  23093.08867915 -.00001230  00000-0 -84617-5 0  9991,2 55302  70.0002 222.1006 0003845 274.8530  85.2227 15.69907490 12052,6737.299,91.725,361.754,356.573,0.0
55302.0,STARLINK-5321,PAYLOAD,2023-04-03 11:18:11,15.69926886,0.0003722,70.0012,221.0264,276.2963,83.7808,3.537e-05,4.043e-05,0.0,0 STARLINK-5321,1 55302U 23010AK  23093.47097111  .00004043  00000-0  35370-4 0  9991,2 55302  70.0012 221.0264 0003722 276.2963  83.7808 15.69926886 12112,6737.243,91.724,361.616,356.601,0.0
55302.0,STARLINK-5321,PAYLOAD,2023-04-04 11:46:13,15.69933246,0.0002656,70.002,218.1594,259.3195,100.7701,-2.6155e-05,-3.357e-05,0.0,0 STARLINK-5321,1 55302U 23010AK  23094.49043203 -.00003357  00000-0 -26155-4 0  9997,2 55302  70.0020 218.1594 0002656 259.3195 100.7701 15.69933246 12275,6737.225,91.724,360.879,357.301,0.0
